{
  "type": "FeatureCollection",
  "features": [
    {
      "type": "Feature",
      "properties": {
        "norad_id": 41581,
        "name": "INTELSAT 31 (IS-31)",
        "group": "intelsat",
        "lat": 0.009177468659795341,
        "lon": 114.28119368816083,
        "alt_km": 35786.883679122075,
        "timestamp": "2025-12-24T07:45:05.866652+00:00",
        "meta_object_name": "INTELSAT 31 (IS-31)",
        "meta_object_id": "2016-035A",
        "meta_epoch": "2025-12-23T19:31:44.704704",
        "meta_mean_motion": 1.00269658,
        "meta_eccentricity": 0.00019255,
        "meta_inclination": 0.0283,
        "meta_ra_of_asc_node": 262.055,
        "meta_arg_of_pericenter": 303.365,
        "meta_mean_anomaly": 85.0534,
        "meta_ephemeris_type": 0,
        "meta_classification_type": "U",
        "meta_norad_cat_id": 41581,
        "meta_element_set_no": 999,
        "meta_rev_at_epoch": 3492,
        "meta_bstar": 0,
        "meta_mean_motion_dot": -1.29e-06,
        "meta_mean_motion_ddot": 0,
        "tle_line1": "1 41581U 16035A   25357.81371186 -.00000129  00000+0  00000+0 0  9992",
        "tle_line2": "2 41581   0.0283 262.0550 0001925 303.3650  85.0534  1.00269658 34921"
      },
      "geometry": {
        "type": "Point",
        "coordinates": [
          114.28119368816083,
          0.009177468659795341
        ]
      }
    },
    {
      "type": "Feature",
      "properties": {
        "norad_id": 41747,
        "name": "INTELSAT 36 (IS-36)",
        "group": "intelsat",
        "lat": -0.0331031573927321,
        "lon": -82.14906460109044,
        "alt_km": 35783.06579635178,
        "timestamp": "2025-12-24T07:45:05.866664+00:00",
        "meta_object_name": "INTELSAT 36 (IS-36)",
        "meta_object_id": "2016-053A",
        "meta_epoch": "2025-12-23T22:01:00.883776",
        "meta_mean_motion": 1.00271056,
        "meta_eccentricity": 0.00011315,
        "meta_inclination": 0.0103,
        "meta_ra_of_asc_node": 8.014,
        "meta_arg_of_pericenter": 317.6781,
        "meta_mean_anomaly": 165.7553,
        "meta_ephemeris_type": 0,
        "meta_classification_type": "U",
        "meta_norad_cat_id": 41747,
        "meta_element_set_no": 999,
        "meta_rev_at_epoch": 3419,
        "meta_bstar": 0,
        "meta_mean_motion_dot": -3e-08,
        "meta_mean_motion_ddot": 0,
        "tle_line1": "1 41747U 16053A   25357.91737134 -.00000003  00000+0  00000+0 0  9997",
        "tle_line2": "2 41747   0.0103   8.0140 0001131 317.6781 165.7553  1.00271056 34192"
      },
      "geometry": {
        "type": "Point",
        "coordinates": [
          -82.14906460109044,
          -0.0331031573927321
        ]
      }
    },
    {
      "type": "Feature",
      "properties": {
        "norad_id": 41945,
        "name": "INTELSAT 32E (IS-32E)",
        "group": "intelsat",
        "lat": 0.03166407440676179,
        "lon": 166.19392207662042,
        "alt_km": 35787.00314449162,
        "timestamp": "2025-12-24T07:45:05.866689+00:00",
        "meta_object_name": "INTELSAT 32E (IS-32E)",
        "meta_object_id": "2017-007B",
        "meta_epoch": "2025-12-23T16:21:03.290976",
        "meta_mean_motion": 1.0026875,
        "meta_eccentricity": 2.529e-05,
        "meta_inclination": 0.0225,
        "meta_ra_of_asc_node": 67.8207,
        "meta_arg_of_pericenter": 7.8321,
        "meta_mean_anomaly": 218.9086,
        "meta_ephemeris_type": 0,
        "meta_classification_type": "U",
        "meta_norad_cat_id": 41945,
        "meta_element_set_no": 999,
        "meta_rev_at_epoch": 3246,
        "meta_bstar": 0,
        "meta_mean_motion_dot": -2.48e-06,
        "meta_mean_motion_ddot": 0,
        "tle_line1": "1 41945U 17007B   25357.68128809 -.00000248  00000+0  00000+0 0  9995",
        "tle_line2": "2 41945   0.0225  67.8207 0000252   7.8321 218.9086  1.00268750 32462"
      },
      "geometry": {
        "type": "Point",
        "coordinates": [
          166.19392207662042,
          0.03166407440676179
        ]
      }
    },
    {
      "type": "Feature",
      "properties": {
        "norad_id": 42818,
        "name": "INTELSAT 35E (IS-35E)",
        "group": "intelsat",
        "lat": 0.019402097622717652,
        "lon": 174.82887222539105,
        "alt_km": 35789.65682727338,
        "timestamp": "2025-12-24T07:45:05.866703+00:00",
        "meta_object_name": "INTELSAT 35E (IS-35E)",
        "meta_object_id": "2017-041A",
        "meta_epoch": "2025-12-23T19:48:58.529088",
        "meta_mean_motion": 1.00267018,
        "meta_eccentricity": 0.00020166,
        "meta_inclination": 0.0218,
        "meta_ra_of_asc_node": 25.8487,
        "meta_arg_of_pericenter": 253.9261,
        "meta_mean_anomaly": 75.5708,
        "meta_ephemeris_type": 0,
        "meta_classification_type": "U",
        "meta_norad_cat_id": 42818,
        "meta_element_set_no": 999,
        "meta_rev_at_epoch": 3105,
        "meta_bstar": 0,
        "meta_mean_motion_dot": 0,
        "meta_mean_motion_ddot": 0,
        "tle_line1": "1 42818U 17041A   25357.82567742  .00000000  00000+0  00000+0 0  9997",
        "tle_line2": "2 42818   0.0218  25.8487 0002016 253.9261  75.5708  1.00267018 31053"
      },
      "geometry": {
        "type": "Point",
        "coordinates": [
          174.82887222539105,
          0.019402097622717652
        ]
      }
    },
    {
      "type": "Feature",
      "properties": {
        "norad_id": 42950,
        "name": "INTELSAT 37E (IS-37E)",
        "group": "intelsat",
        "lat": 0.002795128314912869,
        "lon": -168.66500171371004,
        "alt_km": 35782.47581128394,
        "timestamp": "2025-12-24T07:45:05.866715+00:00",
        "meta_object_name": "INTELSAT 37E (IS-37E)",
        "meta_object_id": "2017-059A",
        "meta_epoch": "2025-12-23T21:36:25.739424",
        "meta_mean_motion": 1.00270019,
        "meta_eccentricity": 0.00030276,
        "meta_inclination": 0.0203,
        "meta_ra_of_asc_node": 17.2071,
        "meta_arg_of_pericenter": 245.2871,
        "meta_mean_anomaly": 136.2991,
        "meta_ephemeris_type": 0,
        "meta_classification_type": "U",
        "meta_norad_cat_id": 42950,
        "meta_element_set_no": 999,
        "meta_rev_at_epoch": 3030,
        "meta_bstar": 0,
        "meta_mean_motion_dot": 0,
        "meta_mean_motion_ddot": 0,
        "tle_line1": "1 42950U 17059A   25357.90029791  .00000000  00000+0  00000+0 0  9999",
        "tle_line2": "2 42950   0.0203  17.2071 0003027 245.2871 136.2991  1.00270019 30303"
      },
      "geometry": {
        "type": "Point",
        "coordinates": [
          -168.66500171371004,
          0.002795128314912869
        ]
      }
    },
    {
      "type": "Feature",
      "properties": {
        "norad_id": 43632,
        "name": "AZERSPACE 2 (IS-38)",
        "group": "intelsat",
        "lat": -0.021199880767695106,
        "lon": -105.5321629766435,
        "alt_km": 35781.30951669335,
        "timestamp": "2025-12-24T07:45:05.866726+00:00",
        "meta_object_name": "AZERSPACE 2 (IS-38)",
        "meta_object_id": "2018-074A",
        "meta_epoch": "2025-12-23T21:54:24.016608",
        "meta_mean_motion": 1.00270604,
        "meta_eccentricity": 0.00012578,
        "meta_inclination": 0.0004,
        "meta_ra_of_asc_node": 0.5024,
        "meta_arg_of_pericenter": 272.1539,
        "meta_mean_anomaly": 193.7454,
        "meta_ephemeris_type": 0,
        "meta_classification_type": "U",
        "meta_norad_cat_id": 43632,
        "meta_element_set_no": 999,
        "meta_rev_at_epoch": 2669,
        "meta_bstar": 0,
        "meta_mean_motion_dot": 1.58e-06,
        "meta_mean_motion_ddot": 0,
        "tle_line1": "1 43632U 18074A   25357.91277797  .00000158  00000+0  00000+0 0  9991",
        "tle_line2": "2 43632   0.0004   0.5024 0001257 272.1539 193.7454  1.00270604 26695"
      },
      "geometry": {
        "type": "Point",
        "coordinates": [
          -105.5321629766435,
          -0.021199880767695106
        ]
      }
    },
    {
      "type": "Feature",
      "properties": {
        "norad_id": 43633,
        "name": "HORIZONS-3E",
        "group": "intelsat",
        "lat": -0.010333082072474346,
        "lon": 18.369500457357123,
        "alt_km": 35785.22855675827,
        "timestamp": "2025-12-24T07:45:05.866738+00:00",
        "meta_object_name": "HORIZONS-3E",
        "meta_object_id": "2018-074B",
        "meta_epoch": "2025-12-23T07:05:21.073920",
        "meta_mean_motion": 1.00271636,
        "meta_eccentricity": 5.694e-05,
        "meta_inclination": 0.0488,
        "meta_ra_of_asc_node": 189.0335,
        "meta_arg_of_pericenter": 120.6769,
        "meta_mean_anomaly": 57.71,
        "meta_ephemeris_type": 0,
        "meta_classification_type": "U",
        "meta_norad_cat_id": 43633,
        "meta_element_set_no": 999,
        "meta_rev_at_epoch": 2657,
        "meta_bstar": 0,
        "meta_mean_motion_dot": -9e-08,
        "meta_mean_motion_ddot": 0,
        "tle_line1": "1 43633U 18074B   25357.29538280 -.00000009  00000+0  00000+0 0  9996",
        "tle_line2": "2 43633   0.0488 189.0335 0000569 120.6769  57.7100  1.00271636 26577"
      },
      "geometry": {
        "type": "Point",
        "coordinates": [
          18.369500457357123,
          -0.010333082072474346
        ]
      }
    }
  ]
}